INTELSAT 10 (IS-10)     
1 26766U 01019A   25306.20322676 -.00000207  00000+0  00000+0 0  9990
2 26766   8.5290  61.5551 0006241 203.3847 163.2170  0.99077030 43334
INTELSAT 902 (IS-902)   
1 26900U 01039A   25302.31837023 -.00000270  00000+0  00000+0 0  9997
2 26900   5.5323  74.5916 0004367 140.6922 247.1466  1.00272641 88383
INTELSAT 904 (IS-904)   
1 27380U 02007A   25306.24636044 -.00000209  00000+0  00000+0 0  9994
2 27380   6.3493  71.8963 0001575 129.1051 258.0100  1.00269968 49491
DIRECTV 5 (TEMPO 1)     
1 27426U 02023A   25306.47816573 -.00000042  00000+0  00000+0 0  9990
2 27426   4.2946  78.1306 0003399 147.6766 238.2521  1.00271283 85857
INTELSAT 905 (IS-905)   
1 27438U 02027A   25306.46795943  .00000110  00000+0  00000+0 0  9998
2 27438   6.1801  72.5199 0002741 153.9903 206.7848  1.00273520 49096
GALAXY 3C (G-3C)        
1 27445U 02030A   25306.48385395 -.00000138  00000+0  00000+0 0  9999
2 27445   3.1582  80.9176 0001612  78.7889 321.6802  1.00270895 44227
INTELSAT 906 (IS-906)   
1 27513U 02041A   25306.49061286  .00000028  00000+0  00000+0 0  9995
2 27513   5.2250  75.7072 0005181 177.2287  29.8624  1.00273226 84759
GALAXY 13 (HORIZONS-1)  
1 27954U 03044A   25306.46273131  .00000146  00000+0  00000+0 0  9990
2 27954   0.8293  86.9701 0001977 125.2053 206.4041  1.00271680 44295
INTELSAT 10-02          
1 28358U 04022A   25306.32384083  .00000001  00000+0  00000+0 0  9990
2 28358   0.0042 120.9097 0000957 133.8740 262.7009  1.00269975 78289
XM-3 (RHYTHM)           
1 28626U 05008A   25304.95572510 -.00000268  00000+0  00000+0 0  9990
2 28626   0.0617  69.7717 0000069  53.5233 197.2952  1.00273442 40331
DIRECTV 8               
1 28659U 05019A   25306.47473985  .00000012  00000+0  00000+0 0  9999
2 28659   0.0048 208.5441 0003323  23.4985 221.8479  1.00275941 74799
GALAXY 28 (G-28)        
1 28702U 05022A   25306.48621059 -.00000173  00000+0  00000+0 0  9999
2 28702   2.7114  81.7519 0002272 169.3335 237.2939  1.00272793 49706
GALAXY 16 (G-16)        
1 29236U 06023A   25306.48208097 -.00000115  00000+0  00000+0 0  9993
2 29236   0.0196 203.4242 0002738  18.9628 254.1958  1.00271876 70701
DIRECTV 9S              
1 29494U 06043A   25306.45328127 -.00000100  00000+0  00000+0 0  9999
2 29494   1.8311  83.6515 0003057 137.8486 242.4872  1.00271287 49116
GALAXY 17 (G-17)        
1 31307U 07016B   25306.48754791 -.00000192  00000+0  00000+0 0  9990
2 31307   2.3935  82.7566 0006086 147.8347 261.9694  1.00271968 67538
DIRECTV 10              
1 31862U 07032A   25306.44064541 -.00000091  00000+0  00000+0 0  9995
2 31862   0.0032  25.0939 0000922 203.9798 228.7575  1.00269201 43325
INTELSAT 11 (IS-11)     
1 32253U 07044B   25306.26118051  .00000071  00000+0  00000+0 0  9996
2 32253   2.9696  81.4409 0009044 144.5829 313.4770  0.99048507 66206
HORIZONS-2              
1 32388U 07063B   25306.37331337 -.00000240  00000+0  00000+0 0  9991
2 32388   2.0122  83.4145 0004136 160.7343 218.3691  1.00273733 65542
DIRECTV 11              
1 32729U 08013A   25306.52115972 -.00000115  00000+0  00000+0 0  9999
2 32729   0.0045  54.3655 0000505 171.6326 264.5125  1.00282311 43323
GALAXY 18 (G-18)        
1 32951U 08024A   25306.51163455  .00000037  00000+0  00000+0 0  9998
2 32951   0.0146 265.1819 0003051 312.1845 245.8740  1.00271778 43581
INTELSAT 25 (IS-25)     
1 33153U 08034A   25306.38910118 -.00000210  00000+0  00000+0 0  9999
2 33153   2.1188  83.1075 0005087 160.4903 266.9378  1.00270570 63422
GALAXY 19 (G-19)        
1 33376U 08045A   25306.48274457 -.00000127  00000+0  00000+0 0  9995
2 33376   0.0129 264.0107 0002867 313.7549 261.0616  1.00271919 62630
FM-5                    
1 35493U 09034A   25306.48743786 -.00000189  00000+0  00000+0 0  9990
2 35493   0.0220 268.5676 0000628 252.7045 330.1173  1.00274753 44376
INTELSAT 14 (IS-14)     
1 36097U 09064A   25306.38632785  .00000000  00000+0  00000+0 0  9990
2 36097   0.0154  72.2223 0002803 159.9310 263.8416  1.00269657 58331
INTELSAT 15 (IS-15)     
1 36106U 09067A   25306.51341123 -.00000173  00000+0  00000+0 0  9994
2 36106   0.0168 274.2609 0002336 305.1282  92.6604  1.00271419 38955
DIRECTV 12              
1 36131U 09075A   25306.44064588 -.00000092  00000+0  00000+0 0  9990
2 36131   0.0201  27.1689 0000709 226.6801 204.0590  1.00271371 44283
INTELSAT 16 (IS-16)     
1 36397U 10006A   25306.37194506 -.00000233  00000+0  00000+0 0  9993
2 36397   0.0136 287.8573 0002043 291.5256 240.2583  1.00270338 57380
XM-5                    
1 37185U 10053A   25306.51736758 -.00000011  00000+0  00000+0 0  9992
2 37185   0.0604 269.7662 0000751 226.1473 337.2265  1.00271045 55213
INTELSAT 17 (IS-17)     
1 37238U 10065B   25306.50633931  .00000010  00000+0  00000+0 0  9990
2 37238   0.0242 144.0772 0002449  82.9472  63.3028  1.00271759 50974
INTELSAT 28 (IS-28)     
1 37392U 11016A   25306.38910118 -.00000211  00000+0  00000+0 0  9993
2 37392   1.2152  85.5215 0004098 144.2689 280.5352  1.00270891 51018
INTELSAT 18 (IS-18)     
1 37834U 11056A   25306.40808823  .00000065  00000+0  00000+0 0  9996
2 37834   0.0192 270.8605 0001775 308.4122 149.6000  1.00271138 51534
INTELSAT 22 (IS-22)     
1 38098U 12011A   25306.50738397 -.00000047  00000+0  00000+0 0  9991
2 38098   0.0129 284.5132 0001746 297.9601  74.3428  1.00271872  4919
INTELSAT 19 (IS-19)     
1 38356U 12030A   25306.35668769  .00000000  00000+0  00000+0 0  9995
2 38356   0.0124 284.6702 0003289 302.7012 108.9107  1.00267210 48175
INTELSAT 20 (IS-20)     
1 38740U 12043A   25306.50727682 -.00000012  00000+0  00000+0 0  9997
2 38740   0.0231 144.3673 0002479  36.1880 112.6048  1.00270855 48479
INTELSAT 21 (IS-21)     
1 38749U 12045A   25306.36241993  .00000000  00000+0  00000+0 0  9994
2 38749   0.0202  92.8464 0002836 143.6503 237.8621  1.00269281 48258
INTELSAT 23 (IS-23)     
1 38867U 12057A   25306.38485449 -.00000273  00000+0  00000+0 0  9999
2 38867   0.0126 252.2548 0002006   9.3127 225.9331  1.00271849 47683
FM-6                    
1 39360U 13058A   25306.51652372 -.00000005  00000+0  00000+0 0  9999
2 39360   0.0256 135.7437 0002778  33.3119 302.7983  1.00272315 43808
INTELSAT 30 (IS-30)     
1 40271U 14062A   25306.52318380 -.00000140  00000+0  00000+0 0  9997
2 40271   0.0140 312.4331 0001095 113.0532  69.8866  1.00278248  4513
DIRECTV 14              
1 40333U 14078B   25306.48208119  .00000000  00000+0  00000+0 0  9990
2 40333   0.0197 260.0236 0000570 341.6912 234.5946  1.00275431 39771
DIRECTV 15              
1 40663U 15026A   25306.51976858  .00000000  00000+0  00000+0 0  9996
2 40663   0.0214  93.8731 0000520 159.3767 233.0511  1.00277672 38192
SKY MEXICO-1            
1 40664U 15026B   25306.49010877 -.00000222  00000+0  00000+0 0  9991
2 40664   0.0130 280.2175 0002246 306.9174 272.5872  1.00271541 38189
INTELSAT 34 (IS-34)     
1 40874U 15039A   25306.38433449 -.00000273  00000+0  00000+0 0  9996
2 40874   0.0192 273.6863 0000260 214.3825 356.7314  1.00272251 37352
INTELSAT 31 (IS-31)     
1 41581U 16035A   25306.44416264 -.00000141  00000+0  00000+0 0  9996
2 41581   0.0151 247.6422 0002445 338.3094 240.8885  1.00283744 34416
INTELSAT 36 (IS-36)     
1 41747U 16053A   25306.50727682 -.00000012  00000+0  00000+0 0  9993
2 41747   0.0125 309.0386 0001314  34.4245 309.6979  1.00269377 33670
INTELSAT 32E (IS-32E)   
1 41945U 17007B   25306.31543412  .00000000  00000+0  00000+0 0  9995
2 41945   0.0043 226.2880 0000180 346.1432 259.7864  1.00268871 31954
INTELSAT 35E (IS-35E)   
1 42818U 17041A   25306.38849453 -.00000226  00000+0  00000+0 0  9995
2 42818   0.0156 268.8868 0002300 311.3866 287.0468  1.00271262 30544
INTELSAT 37E (IS-37E)   
1 42950U 17059A   25306.32046082  .00000000  00000+0  00000+0 0  9991
2 42950   0.0164 260.0169 0003126 326.0127 273.1790  1.00270525 29798
AZERSPACE 2 (IS-38)     
1 43632U 18074A   25306.27169911  .00000148  00000+0  00000+0 0  9991
2 43632   0.0158 266.3891 0001459 305.0315 333.3330  1.00270360 26178
HORIZONS-3E             
1 43633U 18074B   25306.39141980 -.00000019  00000+0  00000+0 0  9999
2 43633   0.0123 222.5865 0001232  74.9056  54.3697  1.00268421 26068
AT&T T-16               
1 44333U 19034A   25306.52045071 -.00000105  00000+0  00000+0 0  9999
2 44333   0.0278  72.4546 0000869 154.5856 261.5486  1.00282597 23361
INTELSAT 39 (IS-39)     
1 44476U 19049B   25306.54880742  .00000045  00000+0  00000+0 0  9999
2 44476   0.0122 267.2046 0000446 221.0222 173.3919  1.00271657 22853
GALAXY 30 (G-30)        
1 46114U 20056C   25306.51096896  .00000000  00000+0  00000+0 0  9997
2 46114   0.0198 264.7060 0002397 319.0836 237.1911  1.00270416 19029
GALAXY 33 (G-33)        
1 54026U 22128A   25306.50830557  .00000091  00000+0  00000+0 0  9999
2 54026   0.0205 278.4324 0001861 296.6278 236.9845  1.00271630 11461
GALAXY 34 (G-34)        
1 54027U 22128B   25306.50952910  .00000071  00000+0  00000+0 0  9996
2 54027   0.0108 299.9794 0001452 279.0003 237.4926  1.00270538 11642
GALAXY 31 (G-31)        
1 54243U 22153A   25306.51552958  .00000025  00000+0  00000+0 0  9992
2 54243   0.0092 227.8246 0001744   9.0609 229.7742  1.00271794  4864
GALAXY 32 (G-32)        
1 54244U 22153B   25305.87793990 -.00000163  00000+0  00000+0 0  9998
2 54244   0.0151 290.8120 0001675 356.0728 339.6168  1.00270537 10866
GALAXY 35 (G-35)        
1 54741U 22170A   25306.48476096 -.00000150  00000+0  00000+0 0  9998
2 54741   0.0120 241.8302 0002297 346.9574 254.6685  1.00271617 10624
GALAXY 36 (G-36)        
1 54742U 22170B   25306.52526369 -.00000173  00000+0  00000+0 0  9998
2 54742   0.0234 248.6408 0001147 285.0812 328.4524  1.00269565 10502
GALAXY 37 (G-37)        
1 57493U 23112A   25306.51030242  .00000060  00000+0  00000+0 0  9994
2 57493   0.0045 300.5045 0002240 289.9868 228.2762  1.00271677  8271
